[
    {
        "Altitude(m)": 555234.6384764307,
        "Argument of Periapsis(deg)": 0.013245982221427002,
        "Eccentricity": 0.0,
        "Inclination(deg)": 53.0,
        "Latitude(deg)": -6.073361347538026,
        "Longitude(deg)": 127.99693330031229,
        "Mean Anomaly(deg)": 187.45598573515517,
        "RAAN(deg)": 44.98028673705604,
        "Satellite Name": "Starlink Shell 1 208",
        "Satellite Number": 208,
        "Semi-Major Axis(m)": 6931778.249405717,
        "Time(s)": 380
    },
    {
        "Altitude(m)": 555334.0756490078,
        "Argument of Periapsis(deg)": 0.013594560700938237,
        "Eccentricity": 0.0,
        "Inclination(deg)": 53.0,
        "Latitude(deg)": -6.575361922774348,
        "Longitude(deg)": 128.3367922856573,
        "Mean Anomaly(deg)": 188.08281693871191,
        "RAAN(deg)": 44.97976796697856,
        "Satellite Name": "Starlink Shell 1 208",
        "Satellite Number": 208,
        "Semi-Major Axis(m)": 6931778.249405717,
        "Time(s)": 390
    },
    {
        "Altitude(m)": 555436.0901677868,
        "Argument of Periapsis(deg)": 0.013943139180449475,
        "Eccentricity": 0.0,
        "Inclination(deg)": 53.0,
        "Latitude(deg)": -7.077049765980934,
        "Longitude(deg)": 128.67740670003545,
        "Mean Anomaly(deg)": 188.70964814226863,
        "RAAN(deg)": 44.97924919690109,
        "Satellite Name": "Starlink Shell 1 208",
        "Satellite Number": 208,
        "Semi-Major Axis(m)": 6931778.249405717,
        "Time(s)": 400
    },
    {
        "Altitude(m)": 555540.6560513212,
        "Argument of Periapsis(deg)": 0.014291717659960712,
        "Eccentricity": 0.0,
        "Inclination(deg)": 53.0,
        "Latitude(deg)": -7.5784009468064175,
        "Longitude(deg)": 129.01883682340522,
        "Mean Anomaly(deg)": 189.33647934582535,
        "RAAN(deg)": 44.97873042682362,
        "Satellite Name": "Starlink Shell 1 208",
        "Satellite Number": 208,
        "Semi-Major Axis(m)": 6931778.249405717,
        "Time(s)": 410
    },
    {
        "Altitude(m)": 555647.7460467248,
        "Argument of Periapsis(deg)": 0.014640296139471948,
        "Eccentricity": 0.0,
        "Inclination(deg)": 53.0,
        "Latitude(deg)": -8.07939136943775,
        "Longitude(deg)": 129.36114278338366,
        "Mean Anomaly(deg)": 189.96331054938202,
        "RAAN(deg)": 44.97821165674614,
        "Satellite Name": "Starlink Shell 1 208",
        "Satellite Number": 208,
        "Semi-Major Axis(m)": 6931778.249405717,
        "Time(s)": 420
    },
    {
        "Altitude(m)": 555757.3316405519,
        "Argument of Periapsis(deg)": 0.014988874618983185,
        "Eccentricity": 0.0,
        "Inclination(deg)": 53.0,
        "Latitude(deg)": -8.579996759757206,
        "Longitude(deg)": 129.70438508540875,
        "Mean Anomaly(deg)": 190.5901417529388,
        "RAAN(deg)": 44.97769288666867,
        "Satellite Name": "Starlink Shell 1 208",
        "Satellite Number": 208,
        "Semi-Major Axis(m)": 6931778.249405717,
        "Time(s)": 430
    },
    {
        "Altitude(m)": 555869.383070269,
        "Argument of Periapsis(deg)": 0.015337453098494424,
        "Eccentricity": 0.0,
        "Inclination(deg)": 53.0,
        "Latitude(deg)": -9.080192652327396,
        "Longitude(deg)": 130.04862514298262,
        "Mean Anomaly(deg)": 191.2169729564955,
        "RAAN(deg)": 44.9771741165912,
        "Satellite Name": "Starlink Shell 1 208",
        "Satellite Number": 208,
        "Semi-Major Axis(m)": 6931778.249405717,
        "Time(s)": 440
    },
    {
        "Altitude(m)": 555983.8693363646,
        "Argument of Periapsis(deg)": 0.01568603157800566,
        "Eccentricity": 0.0,
        "Inclination(deg)": 53.0,
        "Latitude(deg)": -9.57995437719529,
        "Longitude(deg)": 130.39392429512725,
        "Mean Anomaly(deg)": 191.8438041600522,
        "RAAN(deg)": 44.97665534651372,
        "Satellite Name": "Starlink Shell 1 208",
        "Satellite Number": 208,
        "Semi-Major Axis(m)": 6931778.249405717,
        "Time(s)": 450
    },
    {
        "Altitude(m)": 556100.758215101,
        "Argument of Periapsis(deg)": 0.0160346100575169,
        "Eccentricity": 0.0,
        "Inclination(deg)": 53.0,
        "Latitude(deg)": -10.079257046503098,
        "Longitude(deg)": 130.7403443367964,
        "Mean Anomaly(deg)": 192.47063536360892,
        "RAAN(deg)": 44.976136576436254,
        "Satellite Name": "Starlink Shell 1 208",
        "Satellite Number": 208,
        "Semi-Major Axis(m)": 6931778.249405717,
        "Time(s)": 460
    },
    {
        "Altitude(m)": 556220.0162718353,
        "Argument of Periapsis(deg)": 0.016383188537028134,
        "Eccentricity": 0.0,
        "Inclination(deg)": 53.0,
        "Latitude(deg)": -10.578075540893149,
        "Longitude(deg)": 131.08794804937048,
        "Mean Anomaly(deg)": 193.0974665671656,
        "RAAN(deg)": 44.975617806358784,
        "Satellite Name": "Starlink Shell 1 208",
        "Satellite Number": 208,
        "Semi-Major Axis(m)": 6931778.249405717,
        "Time(s)": 470
    },
    {
        "Altitude(m)": 556341.6088749496,
        "Argument of Periapsis(deg)": 0.01673176701653937,
        "Eccentricity": 0.0,
        "Inclination(deg)": 53.0,
        "Latitude(deg)": -11.076384495694747,
        "Longitude(deg)": 131.43679821836125,
        "Mean Anomaly(deg)": 193.72429777072233,
        "RAAN(deg)": 44.97509903628131,
        "Satellite Name": "Starlink Shell 1 208",
        "Satellite Number": 208,
        "Semi-Major Axis(m)": 6931778.249405717,
        "Time(s)": 480
    },
    {
        "Altitude(m)": 556465.5002104014,
        "Argument of Periapsis(deg)": 0.017080345496050607,
        "Eccentricity": 0.0,
        "Inclination(deg)": 53.0,
        "Latitude(deg)": -11.574158286881753,
        "Longitude(deg)": 131.7869581640672,
        "Mean Anomaly(deg)": 194.3511289742791,
        "RAAN(deg)": 44.97458026620384,
        "Satellite Name": "Starlink Shell 1 208",
        "Satellite Number": 208,
        "Semi-Major Axis(m)": 6931778.249405717,
        "Time(s)": 490
    },
    {
        "Altitude(m)": 556591.6532968342,
        "Argument of Periapsis(deg)": 0.017428923975561842,
        "Eccentricity": 0.0,
        "Inclination(deg)": 53.0,
        "Latitude(deg)": -12.071371016788358,
        "Longitude(deg)": 132.13849227230344,
        "Mean Anomaly(deg)": 194.97796017783577,
        "RAAN(deg)": 44.97406149612635,
        "Satellite Name": "Starlink Shell 1 208",
        "Satellite Number": 208,
        "Semi-Major Axis(m)": 6931778.249405717,
        "Time(s)": 500
    },
    {
        "Altitude(m)": 556720.0300012744,
        "Argument of Periapsis(deg)": 0.01777750245507308,
        "Eccentricity": 0.0,
        "Inclination(deg)": 53.0,
        "Latitude(deg)": -12.567996499570468,
        "Longitude(deg)": 132.49146501232883,
        "Mean Anomaly(deg)": 195.60479138139252,
        "RAAN(deg)": 44.97354272604888,
        "Satellite Name": "Starlink Shell 1 208",
        "Satellite Number": 208,
        "Semi-Major Axis(m)": 6931778.249405717,
        "Time(s)": 510
    },
    {
        "Altitude(m)": 556850.5910554095,
        "Argument of Periapsis(deg)": 0.018126080934584315,
        "Eccentricity": 0.0,
        "Inclination(deg)": 53.0,
        "Latitude(deg)": -13.064008246400073,
        "Longitude(deg)": 132.8459414677049,
        "Mean Anomaly(deg)": 196.2316225849492,
        "RAAN(deg)": 44.973023955971414,
        "Satellite Name": "Starlink Shell 1 208",
        "Satellite Number": 208,
        "Semi-Major Axis(m)": 6931778.249405717,
        "Time(s)": 520
    },
    {
        "Altitude(m)": 556983.2960723921,
        "Argument of Periapsis(deg)": 0.018474659414095554,
        "Eccentricity": 0.0,
        "Inclination(deg)": 53.0,
        "Latitude(deg)": -13.559379450382743,
        "Longitude(deg)": 133.201987867209,
        "Mean Anomaly(deg)": 196.85845378850593,
        "RAAN(deg)": 44.97250518589394,
        "Satellite Name": "Starlink Shell 1 208",
        "Satellite Number": 208,
        "Semi-Major Axis(m)": 6931778.249405717,
        "Time(s)": 530
    },
    {
        "Altitude(m)": 557118.1035642452,
        "Argument of Periapsis(deg)": 0.018823237893606792,
        "Eccentricity": 0.0,
        "Inclination(deg)": 53.0,
        "Latitude(deg)": -14.054082971181524,
        "Longitude(deg)": 133.55967060291536,
        "Mean Anomaly(deg)": 197.48528499206262,
        "RAAN(deg)": 44.97198641581647,
        "Satellite Name": "Starlink Shell 1 208",
        "Satellite Number": 208,
        "Semi-Major Axis(m)": 6931778.249405717,
        "Time(s)": 540
    },
    {
        "Altitude(m)": 557254.9709597685,
        "Argument of Periapsis(deg)": 0.019171816373118027,
        "Eccentricity": 0.0,
        "Inclination(deg)": 53.0,
        "Latitude(deg)": -14.548091319339338,
        "Longitude(deg)": 133.91905676117744,
        "Mean Anomaly(deg)": 198.11211619561936,
        "RAAN(deg)": 44.971467645739,
        "Satellite Name": "Starlink Shell 1 208",
        "Satellite Number": 208,
        "Semi-Major Axis(m)": 6931778.249405717,
        "Time(s)": 550
    },
    {
        "Altitude(m)": 557393.8546230055,
        "Argument of Periapsis(deg)": 0.019520394852629266,
        "Eccentricity": 0.0,
        "Inclination(deg)": 53.0,
        "Latitude(deg)": -15.041376640285387,
        "Longitude(deg)": 134.2802146536239,
        "Mean Anomaly(deg)": 198.7389473991761,
        "RAAN(deg)": 44.97094887566152,
        "Satellite Name": "Starlink Shell 1 208",
        "Satellite Number": 208,
        "Semi-Major Axis(m)": 6931778.249405717,
        "Time(s)": 560
    }
]